*******************************************************************************
JPL/HORIZONS                 517 Edith (A903 SK)           2020-Jun-22 09:12:42
Rec #:     517 (+COV) Soln.date: 2020-May-20_01:07:23   # obs: 2875 (1903-2020)
 
IAU76/J2000 helio. ecliptic osc. elements (au, days, deg., period=Julian yrs):
 
  EPOCH=  2456006.5 ! 2012-Mar-20.00 (TDB)         Residual RMS= .33831
   EC= .1814878059493038   QR= 2.582941433402417   TP= 2455296.5869414113
   OM= 274.5331300852014   W=  139.3843421983575   IN= 3.194016836509897
   A= 3.155654188387616    MA= 124.8173998280644   ADIST= 3.728366943372816
   PER= 5.60586            N= .17582068            ANGMOM= .030050613
   DAN= 3.53931            DDN= 2.6822             L= 53.9614831
   B= 2.0786255            MOID= 1.59388995        TP= 2010-Apr-10.0869414113
 
Asteroid physical parameters (km, seconds, rotational period in hours):
   GM= n.a.                RAD= 55.945             ROTPER= 9.2747
   H= 9.5                  G= .150                 B-V= .711
                           ALBEDO= .026            STYP= X
 
ASTEROID comments: 
1: soln ref.= JPL#37, OCC=0
2: source=ORB
*******************************************************************************
 
 
*******************************************************************************
Ephemeris / WWW_USER Mon Jun 22 09:12:42 2020 Pasadena, USA      / Horizons
*******************************************************************************
Target body name: 517 Edith (A903 SK)             {source: JPL#37}
Center body name: Solar System Barycenter (0)     {source: DE431}
Center-site name: BODY CENTER
*******************************************************************************
Start time      : A.D. 1969-Jun-28 00:00:00.0000 TDB
Stop  time      : A.D. 2071-May-04 00:00:00.0000 TDB
Step-size       : 7200 minutes
*******************************************************************************
Center geodetic : 0.00000000,0.00000000,0.0000000 {E-lon(deg),Lat(deg),Alt(km)}
Center cylindric: 0.00000000,0.00000000,0.0000000 {E-lon(deg),Dxy(km),Dz(km)}
Center radii    : (undefined)                                                  
Small perturbers: Yes                             {source: SB431-N16}
Output units    : AU-D
Output type     : GEOMETRIC cartesian states
Output format   : 2 (position and velocity)
Reference frame : Ecliptic of J2000.0
*******************************************************************************
Initial IAU76/J2000 heliocentric ecliptic osculating elements (au, days, deg.):
  EPOCH=  2456006.5 ! 2012-Mar-20.00 (TDB)         Residual RMS= .33831        
   EC= .1814878059493038   QR= 2.582941433402417   TP= 2455296.5869414113      
   OM= 274.5331300852014   W=  139.3843421983575   IN= 3.194016836509897       
  Equivalent ICRF heliocentric equatorial cartesian coordinates (au, au/d):
   X=-3.436618846794823E+00  Y=-6.905210259336181E-01  Z=-5.117729289556581E-01
  VX= 8.835158933446154E-04 VY=-7.817376924871420E-03 VZ=-3.376612974051123E-03
Asteroid physical parameters (km, seconds, rotational period in hours):        
   GM= n.a.                RAD= 55.945             ROTPER= 9.2747              
   H= 9.5                  G= .150                 B-V= .711                   
                           ALBEDO= .026            STYP= X                     
*******************************************************************************
            JDTDB,            Calendar Date (TDB),        delta-T,                      X,                      Y,                      Z,                     VX,                     VY,                     VZ,
******************************************************************************************************************************************************************************************************************
$$SOE
2458180.500000000, A.D. 2018-Mar-03 00:00:00.0000,      69.185426, -3.148167755336242E+00, -1.845203985003379E+00, -1.831438182892871E-01,  3.521943163369517E-03, -7.460760379187577E-03,  1.658059266905800E-04,
2458185.500000000, A.D. 2018-Mar-08 00:00:00.0000,      69.185494, -3.130321075058306E+00, -1.882367865321316E+00, -1.823008722611251E-01,  3.616591924612361E-03, -7.404633322274539E-03,  1.713656487524719E-04,
2458190.500000000, A.D. 2018-Mar-13 00:00:00.0000,      69.185552, -3.112003208861736E+00, -1.919248742546672E+00, -1.814302303456596E-01,  3.710417024245327E-03, -7.347560851787930E-03,  1.768842445449116E-04,
2458195.500000000, A.D. 2018-Mar-18 00:00:00.0000,      69.185599, -3.093218282620372E+00, -1.955841915109315E+00, -1.805320987286022E-01,  3.803415442374486E-03, -7.289553137578345E-03,  1.823614926397943E-04,
2458200.500000000, A.D. 2018-Mar-23 00:00:00.0000,      69.185635, -3.073970437215022E+00, -1.992142731852417E+00, -1.796066846983128E-01,  3.895584195338702E-03, -7.230620175661215E-03,  1.877971733508714E-04,
2458205.500000000, A.D. 2018-Mar-28 00:00:00.0000,      69.185657, -3.054263828363829E+00, -2.028146591171474E+00, -1.786541966379185E-01,  3.986920331097135E-03, -7.170771791494542E-03,  1.931910684033548E-04,
2458210.500000000, A.D. 2018-Apr-02 00:00:00.0000,      69.185665, -3.034102626475632E+00, -2.063848940169574E+00, -1.776748440190506E-01,  4.077420924661073E-03, -7.110017643178314E-03,  1.985429606201541E-04,
2458215.500000000, A.D. 2018-Apr-07 00:00:00.0000,      69.185661, -3.013491016525798E+00, -2.099245273828330E+00, -1.766688373970832E-01,  4.167083073692219E-03, -7.048367224527905E-03,  2.038526336357692E-04,
2458220.500000000, A.D. 2018-Apr-12 00:00:00.0000,      69.185647, -2.992433197953520E+00, -2.134331134193945E+00, -1.756363884077392E-01,  4.255903894319991E-03, -6.985829868054563E-03,  2.091198716335730E-04,
2458225.500000000, A.D. 2018-Apr-17 00:00:00.0000,      69.185621, -2.970933384579484E+00, -2.169102109578075E+00, -1.745777097649779E-01,  4.343880517171991E-03, -6.922414747921034E-03,  2.143444590949853E-04,
2458230.500000000, A.D. 2018-Apr-22 00:00:00.0000,      69.185584, -2.948995804542939E+00, -2.203553833773492E+00, -1.734930152601165E-01,  4.431010083574977E-03, -6.858130882909525E-03,  2.195261805537132E-04,
2458235.500000000, A.D. 2018-Apr-27 00:00:00.0000,      69.185533, -2.926624700257402E+00, -2.237681985284679E+00, -1.723825197621842E-01,  4.517289741893637E-03, -6.792987139424890E-03,  2.246648203515942E-04,
2458240.500000000, A.D. 2018-May-02 00:00:00.0000,      69.185470, -2.903824328384405E+00, -2.271482286573516E+00, -1.712464392194830E-01,  4.602716643972253E-03, -6.726992234529299E-03,  2.297601623977849E-04,
2458245.500000000, A.D. 2018-May-07 00:00:00.0000,      69.185397, -2.880598959824785E+00, -2.304950503320214E+00, -1.700849906623418E-01,  4.687287941675462E-03, -6.660154739005330E-03,  2.348119899330753E-04,
2458250.500000000, A.D. 2018-May-12 00:00:00.0000,      69.185316, -2.856952879727044E+00, -2.338082443699621E+00, -1.688983922070350E-01,  4.771000783520953E-03, -6.592483080443727E-03,  2.398200853012541E-04,
2458255.500000000, A.D. 2018-May-17 00:00:00.0000,      69.185226, -2.832890387512310E+00, -2.370873957673060E+00, -1.676868630608266E-01,  4.853852311398389E-03, -6.523985546363918E-03,  2.447842297262312E-04,
2458260.500000000, A.D. 2018-May-22 00:00:00.0000,      69.185127, -2.808415796915532E+00, -2.403320936295833E+00, -1.664506235281155E-01,  4.935839657359663E-03, -6.454670287371511E-03,  2.497042030937794E-04,
2458265.500000000, A.D. 2018-May-27 00:00:00.0000,      69.185018, -2.783533436042578E+00, -2.435419311040642E+00, -1.651898950176640E-01,  5.016959940464989E-03, -6.384545320350117E-03,  2.545797837373969E-04,
2458270.500000000, A.D. 2018-Jun-01 00:00:00.0000,      69.184901, -2.758247647442983E+00, -2.467165053136988E+00, -1.639049000508864E-01,  5.097210263670483E-03, -6.313618531678097E-03,  2.594107482285883E-04,
2458275.500000000, A.D. 2018-Jun-06 00:00:00.0000,      69.184778, -2.732562788198134E+00, -2.498554172926678E+00, -1.625958622711635E-01,  5.176587710777162E-03, -6.241897680423675E-03,  2.641968711764864E-04,
2458280.500000000, A.D. 2018-Jun-11 00:00:00.0000,      69.184651, -2.706483230024502E+00, -2.529582719235215E+00, -1.612630064541437E-01,  5.255089343473314E-03, -6.169390401530150E-03,  2.689379250328094E-04,
2458285.500000000, A.D. 2018-Jun-16 00:00:00.0000,      69.184520, -2.680013359391363E+00, -2.560246778759156E+00, -1.599065585190147E-01,  5.332712198464113E-03, -6.096104209021540E-03,  2.736336798963101E-04,
2458290.500000000, A.D. 2018-Jun-21 00:00:00.0000,      69.184385, -2.653157577652939E+00, -2.590542475469804E+00, -1.585267455407852E-01,  5.409453284580239E-03, -6.022046499328942E-03,  2.782839033050127E-04,
2458295.500000000, A.D. 2018-Jun-26 00:00:00.0000,      69.184245, -2.625920301195179E+00, -2.620465970033601E+00, -1.571237957635970E-01,  5.485309579796496E-03, -5.947224554629948E-03,  2.828883600360520E-04,
2458300.500000000, A.D. 2018-Jul-01 00:00:00.0000,      69.184103, -2.598305961597562E+00, -2.650013459249025E+00, -1.556979386149812E-01,  5.560278028232724E-03, -5.871645546086462E-03,  2.874468119302242E-04,
2458305.500000000, A.D. 2018-Jul-06 00:00:00.0000,      69.183961, -2.570319005809694E+00, -2.679181175499250E+00, -1.542494047209088E-01,  5.634355537245595E-03, -5.795316536913136E-03,  2.919590177499988E-04,
2458310.500000000, A.D. 2018-Jul-11 00:00:00.0000,      69.183821, -2.541963896342054E+00, -2.707965386219755E+00, -1.527784259214692E-01,  5.707538974687609E-03, -5.718244485292570E-03,  2.964247330679914E-04,
2458315.500000000, A.D. 2018-Jul-16 00:00:00.0000,      69.183682, -2.513245111469951E+00, -2.736362393380241E+00, -1.512852352870567E-01,  5.779825166370054E-03, -5.640436247197838E-03,  3.008437101772313E-04,
